NORAD_CAT_ID,OBJECT_NAME,OBJECT_TYPE,EPOCH,MEAN_MOTION,ECCENTRICITY,INCLINATION,RA_OF_ASC_NODE,ARG_OF_PERICENTER,MEAN_ANOMALY,BSTAR,MEAN_MOTION_DOT,MEAN_MOTION_DDOT,TLE_LINE0,TLE_LINE1,TLE_LINE2,SEMIMAJOR_AXIS,PERIOD,APOGEE,PERIGEE,DECAYED
51115.0,STARLINK-3397,PAYLOAD,2022-07-13 06:44:19,15.08848579,0.0002192,53.2162,163.9954,59.5399,300.5809,0.00011343,1.518e-05,0.0,0 STARLINK-3397,1 51115U 22005M   22194.28078245  .00001518  00000-0  11343-3 0  9996,2 51115  53.2162 163.9954 0002192  59.5399 300.5809 15.08848579 28386,6917.854,95.437,541.236,538.203,0.0
51115.0,STARLINK-3397,PAYLOAD,2022-07-13 14:41:15,15.08847135,0.0002194,53.216,162.5083,59.2926,300.8282,6.1476e-05,6.900000000000003e-06,0.0,0 STARLINK-3397,1 51115U 22005M   22194.61198332  .00000690  00000-0  61476-4 0  9996,2 51115  53.2160 162.5083 0002194  59.2926 300.8282 15.08847135 27325,6917.859,95.437,541.241,538.206,0.0
51115.0,STARLINK-3397,PAYLOAD,2022-07-14 04:59:43,15.08842485,0.0002204,53.2161,159.8321,59.9694,300.1517,-4.0976e-06,-3.54e-06,0.0,0 STARLINK-3397,1 51115U 22005M   22195.20814639 -.00000354  00000-0 -40976-5 0  9999,2 51115  53.2161 159.8321 0002204  59.9694 300.1517 15.08842485 28521,6917.873000000001,95.437,541.262,538.2130000000002,0.0
51115.0,STARLINK-3397,PAYLOAD,2022-07-14 08:10:30,15.08837301,0.0002005,53.2158,159.2395,62.5918,297.5278,-6.5991e-05,-1.338e-05,0.0,0 STARLINK-3397,1 51115U 22005M   22195.34063099 -.00001338  00000-0 -65991-4 0  9996,2 51115  53.2158 159.2395 0002005  62.5918 297.5278 15.08837301 27433,6917.889,95.438,541.141,538.367,0.0
51115.0,STARLINK-3397,PAYLOAD,2022-07-14 16:07:27,15.08824896,0.0001995,53.2169,157.7518,59.7935,300.3255,-5.664e-05,-1.189e-05,0.0,0 STARLINK-3397,1 51115U 22005M   22195.67184054 -.00001189  00000-0 -56640-4 0  9992,2 51115  53.2169 157.7518 0001995  59.7935 300.3255 15.08824896 28590,6917.927,95.439,541.172,538.411,0.0
51115.0,STARLINK-3397,PAYLOAD,2022-07-15 01:39:45,15.08832204,0.0002031,53.2163,155.967,57.3103,302.8084,-4.1503e-05,-9.49e-06,0.0,0 STARLINK-3397,1 51115U 22005M   22196.06927826 -.00000949  00000-0 -41503-4 0  9993,2 51115  53.2163 155.9670 0002031  57.3103 302.8084 15.08832204 28652,6917.904,95.438,541.174,538.364,0.0
51115.0,STARLINK-3397,PAYLOAD,2022-07-15 15:58:13,15.08839101,0.0002118,53.216,153.2901,58.0468,302.0729,-1.0208e-06,-3.05e-06,0.0,0 STARLINK-3397,1 51115U 22005M   22196.66543463 -.00000305  00000-0 -10208-5 0  9995,2 51115  53.2160 153.2901 0002118  58.0468 302.0729 15.08839101 28746,6917.8830000000025,95.438,541.2130000000002,538.283,0.0
51115.0,STARLINK-3397,PAYLOAD,2022-07-16 04:41:18,15.08840134,0.0001895,53.2159,150.9111,65.3477,294.7712,0.00022319,3.266e-05,0.0,0 STARLINK-3397,1 51115U 22005M   22197.19534985  .00003266  00000-0  22319-3 0  9994,2 51115  53.2159 150.9111 0001895  65.3477 294.7712 15.08840134 27716,6917.88,95.438,541.056,538.434,0.0
51115.0,STARLINK-3397,PAYLOAD,2022-07-16 15:49:00,15.08850325,0.0002127,53.2153,148.8297,59.3867,300.7335,0.00040025,6.089e-05,0.0,0 STARLINK-3397,1 51115U 22005M   22197.65902932  .00006089  00000-0  40025-3 0  9996,2 51115  53.2153 148.8297 0002127  59.3867 300.7335 15.08850325 28898,6917.849,95.437,541.185,538.242,0.0
51115.0,STARLINK-3397,PAYLOAD,2022-07-16 20:35:09,15.08851186,0.0002087,53.2152,147.9372,60.3358,299.7841,0.00036263,5.489999999999999e-05,0.0,0 STARLINK-3397,1 51115U 22005M   22197.85774824  .00005490  00000-0  36263-3 0  9999,2 51115  53.2152 147.9372 0002087  60.3358 299.7841 15.08851186 27819,6917.846,95.437,541.155,538.2669999999998,0.0
51115.0,STARLINK-3397,PAYLOAD,2022-07-17 02:56:42,15.08845754,0.0002049,53.2154,146.7479,60.8807,299.2390000000001,0.00023859,3.512e-05,0.0,0 STARLINK-3397,1 51115U 22005M   22198.12271119  .00003512  00000-0  23859-3 0  9999,2 51115  53.2154 146.7479 0002049  60.8807 299.2390 15.08845754 28963,6917.863,95.437,541.145,538.31,0.0
51115.0,STARLINK-3397,PAYLOAD,2022-07-17 06:07:28,15.08849698,0.0002061,53.2154,146.153,61.2454,298.8745,0.0002449,3.613e-05,0.0,0 STARLINK-3397,1 51115U 22005M   22198.25518854  .00003613  00000-0  24490-3 0  9997,2 51115  53.2154 146.1530 0002061  61.2454 298.8745 15.08849698 27871,6917.851,95.437,541.1419999999998,538.29,0.0
51115.0,STARLINK-3397,PAYLOAD,2022-07-17 15:39:47,15.08843045,0.0002088,53.2153,144.3694,58.8924,301.2273,4.6417e-05,4.51e-06,0.0,0 STARLINK-3397,1 51115U 22005M   22198.65263154  .00000451  00000-0  46417-4 0  9992,2 51115  53.2153 144.3694 0002088  58.8924 301.2273 15.08843045 27936,6917.871,95.437,541.181,538.2919999999998,0.0
51115.0,STARLINK-3397,PAYLOAD,2022-07-18 02:47:29,15.08843089,0.0002174,53.2149,142.2875,58.5561,301.5643,3.3343e-05,2.42e-06,0.0,0 STARLINK-3397,1 51115U 22005M   22199.11630992  .00000242  00000-0  33343-4 0  9994,2 51115  53.2149 142.2875 0002174  58.5561 301.5643 15.08843089 29113,6917.871,95.437,541.24,538.232,0.0
51115.0,STARLINK-3397,PAYLOAD,2022-07-18 20:16:43,15.08841561,0.0001982,53.2156,139.0168,58.4459,301.6726,0.00016729,2.375e-05,0.0,0 STARLINK-3397,1 51115U 22005M   22199.84495253  .00002375  00000-0  16729-3 0  9990,2 51115  53.2156 139.0168 0001982  58.4459 301.6726 15.08841561 28116,6917.876,95.437,541.112,538.369,0.0
51115.0,STARLINK-3397,PAYLOAD,2022-07-19 04:13:39,15.08847231,0.0001933,53.2156,137.5289,61.3856,298.7331,0.00026331,3.906e-05,0.0,0 STARLINK-3397,1 51115U 22005M   22200.17615041  .00003906  00000-0  26331-3 0  9999,2 51115  53.2156 137.5289 0001933  61.3856 298.7331 15.08847231 29279,6917.858,95.437,541.061,538.386,0.0
51115.0,STARLINK-3397,PAYLOAD,2022-07-19 05:49:02,15.08847562,0.0001939,53.2155,137.2319,61.8349,298.2839,0.0002785,4.148e-05,0.0,0 STARLINK-3397,1 51115U 22005M   22200.24239099  .00004148  00000-0  27850-3 0  9998,2 51115  53.2155 137.2319 0001939  61.8349 298.2839 15.08847562 28170,6917.857,95.437,541.064,538.381,0.0
51115.0,STARLINK-3397,PAYLOAD,2022-07-19 20:07:31,15.08840821,0.0001944,53.2153,134.5562,62.4399,297.6790000000001,0.00015301,2.148e-05,0.0,0 STARLINK-3397,1 51115U 22005M   22200.83855424  .00002148  00000-0  15301-3 0  9995,2 51115  53.2153 134.5562 0001944  62.4399 297.6790 15.08840821 28266,6917.878000000002,95.438,541.0880000000002,538.398,0.0
51115.0,STARLINK-3397,PAYLOAD,2022-07-20 04:04:26,15.08860482,0.0001889,53.2155,133.0692,59.1741,300.9437,0.00065107,0.00010095,0.0,0 STARLINK-3397,1 51115U 22005M   22201.16974879  .00010095  00000-0  65107-3 0  9997,2 51115  53.2155 133.0692 0001889  59.1741 300.9437 15.08860482 29428,6917.818,95.436,540.99,538.376,0.0
51115.0,STARLINK-3397,PAYLOAD,2022-07-20 12:01:21,15.08859864,0.000188,53.2155,131.5826,59.0557,301.0619,0.00052817,8.132e-05,0.0,0 STARLINK-3397,1 51115U 22005M   22201.50094658  .00008132  00000-0  52817-3 0  9996,2 51115  53.2155 131.5826 0001880  59.0557 301.0619 15.08859864 28363,6917.82,95.436,540.985,538.384,0.0
51115.0,STARLINK-3397,PAYLOAD,2022-07-20 19:58:17,15.08848398,0.0001916,53.2153,130.0944,58.6258,301.4921,0.00010058,1.313e-05,0.0,0 STARLINK-3397,1 51115U 22005M   22201.83214605  .00001313  00000-0  10058-3 0  9993,2 51115  53.2153 130.0944 0001916  58.6258 301.4921 15.08848398 28415,6917.855,95.437,541.045,538.394,0.0
51115.0,STARLINK-3397,PAYLOAD,2022-07-21 03:55:13,15.08829362,0.0001863,53.2158,128.6075,58.0519,302.0654,-0.00015953,-2.825e-05,0.0,0 STARLINK-3397,1 51115U 22005M   22202.16335431 -.00002825  00000-0 -15953-3 0  9991,2 51115  53.2158 128.6075 0001863  58.0519 302.0654 15.08829362 29571,6917.913000000001,95.438,541.067,538.489,0.0
51115.0,STARLINK-3397,PAYLOAD,2022-07-21 05:30:37,15.08826775,0.0001802,53.2167,128.311,59.112,301.0049,-7.3809e-05,-1.462e-05,0.0,0 STARLINK-3397,1 51115U 22005M   22202.22960262 -.00001462  00000-0 -73809-4 0  9995,2 51115  53.2167 128.3110 0001802  59.1120 301.0049 15.08826775 29584,6917.920999999999,95.438,541.0319999999998,538.539,0.0
51115.0,STARLINK-3397,PAYLOAD,2022-07-21 11:52:10,15.08817574,0.0001798,53.2164,127.122,59.0631,301.0538,-6.3445e-05,-1.297e-05,0.0,0 STARLINK-3397,1 51115U 22005M   22202.49457040 -.00001297  00000-0 -63445-4 0  9990,2 51115  53.2164 127.1220 0001798  59.0631 301.0538 15.08817574 29625,6917.949000000001,95.439,541.058,538.57,0.0
51115.0,STARLINK-3397,PAYLOAD,2022-07-21 19:49:07,15.08820567,0.0001807,53.2165,125.6351,61.0626,299.0548,-0.00019401,-3.373e-05,0.0,0 STARLINK-3397,1 51115U 22005M   22202.82577643 -.00003373  00000-0 -19401-3 0  9998,2 51115  53.2165 125.6351 0001807  61.0626 299.0548 15.08820567 28567,6917.94,95.439,541.055,538.555,0.0
51115.0,STARLINK-3397,PAYLOAD,2022-07-22 03:46:02,15.08825676,0.0001863,53.2167,124.1486,58.8503,301.2671,-0.0001457,-2.605e-05,0.0,0 STARLINK-3397,1 51115U 22005M   22203.15697538 -.00002605  00000-0 -14570-3 0  9990,2 51115  53.2167 124.1486 0001863  58.8503 301.2671 15.08825676 29720,6917.924,95.438,541.078,538.5,0.0
51115.0,STARLINK-3397,PAYLOAD,2022-07-22 19:39:53,15.08831166,0.0001928,53.2167,121.1747,52.13399999999999,307.9827,-6.7479e-07,-2.99e-06,0.0,0 STARLINK-3397,1 51115U 22005M   22203.81937158 -.00000299  00000-0 -67479-6 0  9994,2 51115  53.2167 121.1747 0001928  52.1340 307.9827 15.08831166 28710,6917.906999999997,95.438,541.106,538.439,0.0
51115.0,STARLINK-3397,PAYLOAD,2022-07-23 03:36:49,15.08835468,0.0001847,53.2168,119.6879,58.987,301.1304,4.4319e-05,4.17e-06,0.0,0 STARLINK-3397,1 51115U 22005M   22204.15056957  .00000417  00000-0  44319-4 0  9997,2 51115  53.2168 119.6879 0001847  58.9870 301.1304 15.08835468 29874,6917.894,95.438,541.0369999999998,538.482,0.0
51115.0,STARLINK-3397,PAYLOAD,2022-07-23 11:33:44,15.08834078,0.0001829,53.2171,118.2013,60.5996,299.5178,0.00021763,3.177e-05,0.0,0 STARLINK-3397,1 51115U 22005M   22204.48176831  .00003177  00000-0  21763-3 0  9990,2 51115  53.2171 118.2013 0001829  60.5996 299.5178 15.08834078 28819,6917.898,95.438,541.029,538.498,0.0
